IRIDIUM 166             
1 43570U 18061B   23261.86095477  .00000347  00000+0  11687-3 0  9994
2 43570  86.3939 115.6739 0001979  78.5038 281.6380 14.34217741269737
IRIDIUM 158             
1 43571U 18061C   23261.82924288  .00000412  00000+0  14014-3 0  9992
2 43571  86.3937 115.6960 0001706  85.3928 274.7463 14.34219041269699
IRIDIUM 165             
1 43572U 18061D   23261.85461566  .00000369  00000+0  12482-3 0  9999
2 43572  86.3938 115.7128 0001648  86.8509 273.2875 14.34220872269723
IRIDIUM 155             
1 43573U 18061E   23262.09563338  .00000402  00000+0  13654-3 0  9997
2 43573  86.3933 115.5302 0002279  81.4354 278.7100 14.34219731269735
IRIDIUM 154             
1 43574U 18061F   23261.86729205  .00000326  00000+0  10923-3 0  9990
2 43574  86.3940 115.7106 0002095  93.2740 266.8696 14.34220521269742
IRIDIUM 163             
1 43575U 18061G   23262.05757229  .00000369  00000+0  12463-3 0  9998
2 43575  86.3936 115.5774 0002025  88.2993 271.8434 14.34220715269745
IRIDIUM 156             
1 43576U 18061H   23261.89266939  .00000016  00000+0 -11865-5 0  9990
2 43576  86.3936 115.6522 0001953  78.8797 281.2618 14.34216502269719
IRIDIUM 164             
1 43577U 18061J   23261.87363788  .00000361  00000+0  12170-3 0  9999
2 43577  86.3939 115.6852 0001848  84.9594 275.1812 14.34219092269754
